QIANFAN-41              
1 62242U 24232F   25299.28668276  .00000213  00000+0  31217-3 0  9993
2 62242  89.0035  45.9743 0012693 334.1388  25.9127 13.50981359 92849
QIANFAN-42              
1 62243U 24232G   25299.21530369  .00000835  00000+0  35468-3 0  9990
2 62243  89.0030  42.7737 0013440 234.0895 125.9050 14.24410570 94601
QIANFAN-43              
1 62244U 24232H   25299.20852597  .00000214  00000+0  31301-3 0  9993
2 62244  89.0039  46.0453 0014336 339.4653  20.5920 13.50982295 61448
QIANFAN-44              
1 62245U 24232J   25299.27017350  .00000196  00000+0  28576-3 0  9990
2 62245  89.0038  45.8507 0012491 336.8600  23.1987 13.50983469 92921
QIANFAN-45              
1 62246U 24232K   25299.31141124  .00000207  00000+0  30232-3 0  9998
2 62246  89.0041  45.9913 0013122 336.0473  24.0067 13.50980126 92858
QIANFAN-46              
1 62247U 24232L   25299.26200248  .00000199  00000+0  28906-3 0  9991
2 62247  89.0037  46.0672 0013345 342.1604  17.9077 13.50980632 92808
QIANFAN-47              
1 62248U 24232M   25299.26611820  .00000207  00000+0  30192-3 0  9994
2 62248  89.0033  46.0016 0013744 341.0369  19.0269 13.50982470 92837
QIANFAN-48              
1 62249U 24232N   25299.30324339  .00000215  00000+0  31404-3 0  9992
2 62249  89.0037  45.9979 0016040 342.8561  17.2047 13.50978585 92840
